NORAD_CAT_ID,OBJECT_NAME,OBJECT_TYPE,EPOCH,MEAN_MOTION,ECCENTRICITY,INCLINATION,RA_OF_ASC_NODE,ARG_OF_PERICENTER,MEAN_ANOMALY,BSTAR,MEAN_MOTION_DOT,MEAN_MOTION_DDOT,TLE_LINE0,TLE_LINE1,TLE_LINE2,SEMIMAJOR_AXIS,PERIOD,APOGEE,PERIGEE,DECAYED
54075.0,STARLINK-5212,PAYLOAD,2022-12-10 08:00:01,15.25184157,0.0001575,53.2173,260.7795,53.1098,171.817,-0.049131,-0.01152478,0.0,0 STARLINK-5212,1 54075U 22136AA  22344.33335648 -.01152478  00000-0 -49131-1 0  9994,2 54075  53.2173 260.7795 0001575  53.1098 171.8170 15.25184157  8444,6868.37,94.415,491.316,489.153,0.0
54075.0,STARLINK-5212,PAYLOAD,2022-12-10 14:00:01,15.24571076,0.0001676999999999,53.2175,259.6279,46.3053,111.7032,-0.049823,-0.01147718,0.0,0 STARLINK-5212,1 54075U 22136AA  22344.58334491 -.01147718  00000-0 -49823-1 0  9995,2 54075  53.2175 259.6279 0001677  46.3053 111.7032 15.24571076  1305,6870.2109999999975,94.453,493.228,490.924,0.0
54075.0,STARLINK-5212,PAYLOAD,2022-12-11 00:00:00,15.23554009,0.000155,53.2175,257.7144,50.3283,235.0292,-0.051371,-0.01147781,0.0,0 STARLINK-5212,1 54075U 22136AA  22345.00001157 -.01147781  00000-0 -51371-1 0  9994,2 54075  53.2175 257.7144 0001550  50.3283 235.0292 15.23554009  1309,6873.268,94.516,496.198,494.068,0.0
54075.0,STARLINK-5212,PAYLOAD,2022-12-11 08:00:01,15.22743835,0.0001530999999999,53.2173,256.1845,44.5049,269.6949,-0.05293,-0.0115386,0.0,0 STARLINK-5212,1 54075U 22136AA  22345.33335648 -.01153860  00000-0 -52930-1 0  9992,2 54075  53.2173 256.1845 0001531  44.5049 269.6949 15.22743835  8598,6875.706,94.566,498.62300000000016,496.518,0.0
54075.0,STARLINK-5212,PAYLOAD,2022-12-11 14:00:01,15.22129242,0.0001619,53.2175,255.0372,47.9095,197.1723,-0.053516,-0.0114617,0.0,0 STARLINK-5212,1 54075U 22136AA  22345.58334491 -.01146170  00000-0 -53516-1 0  9991,2 54075  53.2175 255.0372 0001619  47.9095 197.1723 15.22129242  1305,6877.556,94.604,500.535,498.3080000000001,0.0
54075.0,STARLINK-5212,PAYLOAD,2022-12-11 22:00:01,15.21316341,0.0001581,53.2176,253.5119,50.3254,221.8875,-0.054893,-0.01147593,0.0,0 STARLINK-5212,1 54075U 22136AA  22345.91668981 -.01147593  00000-0 -54893-1 0  9991,2 54075  53.2176 253.5119 0001581  50.3254 221.8875 15.21316341  1301,6880.005999999999,94.655,502.959,500.783,0.0
54075.0,STARLINK-5212,PAYLOAD,2022-12-12 08:00:01,15.20301182,0.0001472,53.2173,251.6069,46.2699,348.3396,-0.056746,-0.01151094,0.0,0 STARLINK-5212,1 54075U 22136AA  22346.33334491 -.01151094  00000-0 -56746-1 0  9994,2 54075  53.2173 251.6069 0001472  46.2699 348.3396 15.20301182  8741,6883.068,94.718,505.947,503.92,0.0
54075.0,STARLINK-5212,PAYLOAD,2022-12-12 14:00:01,15.19687115,0.0001486,53.2174,250.4639,45.5229,277.8317,-0.05743,-0.01144725,0.0,0 STARLINK-5212,1 54075U 22136AA  22346.58334491 -.01144725  00000-0 -57430-1 0  9995,2 54075  53.2174 250.4639 0001486  45.5229 277.8317 15.19687115  1303,6884.922,94.756,507.811,505.764,0.0
54075.0,STARLINK-5212,PAYLOAD,2022-12-12 22:00:00,15.18891598,0.0001296999999999,53.2167,248.9444,59.4117,288.0686,-0.060206,-0.01170318,0.0,0 STARLINK-5212,1 54075U 22136AA  22346.91667824 -.01170318  00000-0 -60206-1 0  9993,2 54075  53.2167 248.9444 0001297  59.4117 288.0686 15.18891598  1305,6887.326,94.806,510.085,508.298,0.0
54075.0,STARLINK-5212,PAYLOAD,2022-12-13 06:00:00,15.18062302,0.0001686999999999,53.2173,247.4262,36.0456,334.5992,-0.060412,-0.01148282,0.0,0 STARLINK-5212,1 54075U 22136AA  22347.25001157 -.01148282  00000-0 -60412-1 0  9996,2 54075  53.2173 247.4262 0001687  36.0456 334.5992 15.18062302  8884,6889.834,94.858,512.862,510.537,0.0
54075.0,STARLINK-5212,PAYLOAD,2022-12-13 14:00:01,15.17245755,0.0001309,53.2173,245.9076,56.459,336.3676,-0.061647,-0.01144644,0.0,0 STARLINK-5212,1 54075U 22136AA  22347.58334491 -.01144644  00000-0 -61647-1 0  9991,2 54075  53.2173 245.9076 0001309  56.4590 336.3676 15.17245755  1309,6892.306,94.909,515.073,513.269,0.0
54075.0,STARLINK-5212,PAYLOAD,2022-12-13 22:00:00,15.1643447,0.0001615,53.2175,244.394,43.9703,10.0561,-0.063331,-0.01148516,0.0,0 STARLINK-5212,1 54075U 22136AA  22347.91667824 -.01148516  00000-0 -63331-1 0  9991,2 54075  53.2175 244.3940 0001615  43.9703  10.0561 15.16434470  1303,6894.764,94.96,517.743,515.516,0.0
54075.0,STARLINK-5212,PAYLOAD,2022-12-14 06:00:00,15.15619812,0.000171,53.2172,242.8812,39.781,34.469,-0.0646809999999999,-0.01146157,0.0,0 STARLINK-5212,1 54075U 22136AA  22348.25001157 -.01146157  00000-0 -64681-1 0  9998,2 54075  53.2172 242.8812 0001710  39.7810  34.4690 15.15619812  9034,6897.235,95.011,520.279,517.92,0.0
54075.0,STARLINK-5212,PAYLOAD,2022-12-14 14:00:01,15.14805145,0.0001724,53.2173,241.3684,41.2354,52.2622,-0.066184,-0.01145884,0.0,0 STARLINK-5212,1 54075U 22136AA  22348.58334491 -.01145884  00000-0 -66184-1 0  9990,2 54075  53.2173 241.3684 0001724  41.2354  52.2622 15.14805145  1302,6899.706999999999,95.062,522.762,520.383,0.0
54075.0,STARLINK-5212,PAYLOAD,2022-12-14 22:00:00,15.13996591,0.0001693,53.2169,239.8605,50.5529,61.2097,-0.068227,-0.01153778,0.0,0 STARLINK-5212,1 54075U 22136AA  22348.91667824 -.01153778  00000-0 -68227-1 0  9997,2 54075  53.2169 239.8605 0001693  50.5529  61.2097 15.13996591  1305,6902.1640000000025,95.112,525.197,522.86,0.0
54075.0,STARLINK-5212,PAYLOAD,2022-12-15 10:00:00,15.12773395,0.0001439,53.2175,237.5994,52.7236,264.60900000000004,-0.070364,-0.01149808,0.0,0 STARLINK-5212,1 54075U 22136AA  22349.41667824 -.01149808  00000-0 -70364-1 0  9997,2 54075  53.2175 237.5994 0001439  52.7236 264.6090 15.12773395  9219,6905.884,95.189,528.742,526.755,0.0
54075.0,STARLINK-5212,PAYLOAD,2022-12-15 14:00:01,15.12365025,0.0001733,53.2172,236.8462,46.6498,98.7177,-0.0710269999999999,-0.01147638,0.0,0 STARLINK-5212,1 54075U 22136AA  22349.58334491 -.01147638  00000-0 -71027-1 0  9992,2 54075  53.2172 236.8462 0001733  46.6498  98.7177 15.12365025  1308,6907.127,95.215,530.189,527.795,0.0
54075.0,STARLINK-5212,PAYLOAD,2022-12-15 22:00:00,15.11549648,0.0001823,53.2173,235.3441,46.3513,114.3504,-0.072473,-0.01144814,0.0,0 STARLINK-5212,1 54075U 22136AA  22349.91667824 -.01144814  00000-0 -72473-1 0  9997,2 54075  53.2173 235.3441 0001823  46.3513 114.3504 15.11549648  1308,6909.61,95.266,532.735,530.216,0.0
54075.0,STARLINK-5212,PAYLOAD,2022-12-16 08:00:01,15.10572234,0.0001753,53.2164,233.4671,48.2046,220.2708,-0.078396,-0.01200175,0.0,0 STARLINK-5212,1 54075U 22136AA  22350.33334491 -.01200175  00000-0 -78396-1 0  9999,2 54075  53.2164 233.4671 0001753  48.2046 220.2708 15.10572234  9358,6912.590999999999,95.328,535.6669999999998,533.244,0.0
54075.0,STARLINK-5212,PAYLOAD,2022-12-16 14:00:01,15.0985375,0.0001895,53.2172,232.341,47.8368,140.6148,-0.064342,-0.00969816,0.0,0 STARLINK-5212,1 54075U 22136AA  22350.58334491 -.00969816  00000-0 -64342-1 0  9995,2 54075  53.2172 232.3410 0001895  47.8368 140.6148 15.09853750  1308,6914.783,95.373,537.9590000000002,535.3380000000002,0.0
54075.0,STARLINK-5212,PAYLOAD,2022-12-16 22:00:00,15.09047687,0.0002014,53.2173,230.8447,46.0146,154.8363,-0.019833,-0.0030457,0.0,0 STARLINK-5212,1 54075U 22136AA  22350.91667824 -.00304570  00000-0 -19833-1 0  9996,2 54075  53.2173 230.8447 0002014  46.0146 154.8363 15.09047687  1301,6917.246,95.424,540.504,537.7180000000002,0.0
54075.0,STARLINK-5212,PAYLOAD,2022-12-17 00:00:00,15.08910398,0.0002001,53.2174,230.4707,48.4902,245.3381,-0.0074706,-0.00117479,0.0,0 STARLINK-5212,1 54075U 22136AA  22351.00001157 -.00117479  00000-0 -74706-2 0  9999,2 54075  53.2174 230.4707 0002001  48.4902 245.3381 15.08910398  9456,6917.665,95.433,540.914,538.146,0.0
54075.0,STARLINK-5212,PAYLOAD,2022-12-17 14:00:01,15.08869649,0.0001537,53.2128,227.8505,46.7319,177.5018,-2.9092e-05,-7.51e-06,0.0,0 STARLINK-5212,1 54075U 22136AA  22351.58335648 -.00000751  00000-0 -29092-4 0  9991,2 54075  53.2128 227.8505 0001537  46.7319 177.5018 15.08869649  1308,6917.79,95.436,540.7180000000002,538.592,0.0
54075.0,STARLINK-5212,PAYLOAD,2022-12-17 22:00:00,15.08889567,0.0001681,53.2129,226.3556,42.6783,193.1214,-0.0089865999999999,-0.00140722,0.0,0 STARLINK-5212,1 54075U 22136AA  22351.91667824 -.00140722  00000-0 -89866-2 0  9998,2 54075  53.2129 226.3556 0001681  42.6783 193.1214 15.08889567  1302,6917.729,95.434,540.757,538.431,0.0
54075.0,STARLINK-5212,PAYLOAD,2022-12-18 08:00:01,15.08770015,0.0001628,53.213,224.4843,41.2274,299.0539,-0.0010454,-0.00016855,0.0,0 STARLINK-5212,1 54075U 22136AA  22352.33334491 -.00016855  00000-0 -10454-2 0  9992,2 54075  53.2130 224.4843 0001628  41.2274 299.0539 15.08770015  9652,6918.094,95.442,541.086,538.8330000000002,0.0
54075.0,STARLINK-5212,PAYLOAD,2022-12-18 14:00:01,15.08737483,0.0001585999999999,53.2135,223.361,49.3966,209.5167,0.0075208,0.0012113,0.0,0 STARLINK-5212,1 54075U 22136AA  22352.58334491  .00121130  00000-0  75208-2 0  9998,2 54075  53.2135 223.3610 0001586  49.3966 209.5167 15.08737483  1306,6918.194,95.444,541.156,538.962,0.0
54075.0,STARLINK-5212,PAYLOAD,2022-12-18 22:00:00,15.08824223,0.0001858,53.2137,221.8672,47.3602,223.0627,-0.00031509,-5.297e-05,0.0,0 STARLINK-5212,1 54075U 22136AA  22352.91667824 -.00005297  00000-0 -31509-3 0  9998,2 54075  53.2137 221.8672 0001858  47.3602 223.0627 15.08824223  1307,6917.929,95.439,541.0790000000002,538.508,0.0
54075.0,STARLINK-5212,PAYLOAD,2022-12-19 08:00:01,15.08867057,0.0001865,53.2157,219.9955,49.0189,325.8575,0.0079954,0.00129401,0.0,0 STARLINK-5212,1 54075U 22136AA  22353.33334491  .00129401  00000-0  79954-2 0  9993,2 54075  53.2157 219.9955 0001865  49.0189 325.8575 15.08867057  9806,6917.7980000000025,95.436,540.953,538.373,0.0
54075.0,STARLINK-5212,PAYLOAD,2022-12-19 12:00:00,15.09069328,0.0001866,53.2164,219.2465,54.0487,146.6181,-0.02053,-0.00314991,0.0,0 STARLINK-5212,1 54075U 22136AA  22353.50001157 -.00314991  00000-0 -20530-1 0  9999,2 54075  53.2164 219.2465 0001866  54.0487 146.6181 15.09069328  1306,6917.18,95.423,540.335,537.754,0.0
